URSA MAIOR              
1 42776U 17036M   17345.93939186  .00000923  00000-0  45375-4 0  9993
2 42776  97.4286  43.3857 0014265   6.8272 353.3155 15.20454314 26043
